{
  "type": "FeatureCollection",
  "features": [
    {
      "type": "Feature",
      "properties": {
        "norad_id": 66746,
        "name": "TRANSPORTER-15CJ",
        "group": "last-30-days",
        "lat": 44.77269306890534,
        "lon": -100.12735687104784,
        "alt_km": 498.3773527479343,
        "timestamp": "2025-12-26T22:28:04.497592+00:00",
        "meta_object_name": "TRANSPORTER-15CJ",
        "meta_object_id": "2025-276CJ",
        "meta_epoch": "2025-12-26T15:33:16.437888",
        "meta_mean_motion": 15.19480721,
        "meta_eccentricity": 0.00135,
        "meta_inclination": 97.383,
        "meta_ra_of_asc_node": 72.1999,
        "meta_arg_of_pericenter": 191.4395,
        "meta_mean_anomaly": 168.6536,
        "meta_ephemeris_type": 0,
        "meta_classification_type": "U",
        "meta_norad_cat_id": 66746,
        "meta_element_set_no": 999,
        "meta_rev_at_epoch": 423,
        "meta_bstar": 0.00084708,
        "meta_mean_motion_dot": 0.00017977,
        "meta_mean_motion_ddot": 0,
        "tle_line1": "1 66746U 25276CJ  25360.64810692  .00017977  00000+0  84708-3 0  9993",
        "tle_line2": "2 66746  97.3830  72.1999 0013500 191.4395 168.6536 15.19480721  4231"
      },
      "geometry": {
        "type": "Point",
        "coordinates": [
          -100.12735687104784,
          44.77269306890534
        ]
      }
    },
    {
      "type": "Feature",
      "properties": {
        "norad_id": 66747,
        "name": "W-SERIES 5",
        "group": "last-30-days",
        "lat": 55.99901544923156,
        "lon": -96.37071747151157,
        "alt_km": 507.38057346875394,
        "timestamp": "2025-12-26T22:28:04.497602+00:00",
        "meta_object_name": "W-SERIES 5",
        "meta_object_id": "2025-276CK",
        "meta_epoch": "2025-12-26T17:10:45.572736",
        "meta_mean_motion": 15.17571727,
        "meta_eccentricity": 0.0001626,
        "meta_inclination": 97.4405,
        "meta_ra_of_asc_node": 72.2414,
        "meta_arg_of_pericenter": 188.2769,
        "meta_mean_anomaly": 171.8438,
        "meta_ephemeris_type": 0,
        "meta_classification_type": "U",
        "meta_norad_cat_id": 66747,
        "meta_element_set_no": 999,
        "meta_rev_at_epoch": 424,
        "meta_bstar": 0.00024888,
        "meta_mean_motion_dot": 4.932e-05,
        "meta_mean_motion_ddot": 0,
        "tle_line1": "1 66747U 25276CK  25360.71580524  .00004932  00000+0  24888-3 0  9990",
        "tle_line2": "2 66747  97.4405  72.2414 0001626 188.2769 171.8438 15.17571727  4242"
      },
      "geometry": {
        "type": "Point",
        "coordinates": [
          -96.37071747151157,
          55.99901544923156
        ]
      }
    },
    {
      "type": "Feature",
      "properties": {
        "norad_id": 66748,
        "name": "TRANSPORTER-15CL",
        "group": "last-30-days",
        "lat": -5.761399958627021,
        "lon": -108.27366740427948,
        "alt_km": 512.2200327519513,
        "timestamp": "2025-12-26T22:28:04.497614+00:00",
        "meta_object_name": "TRANSPORTER-15CL",
        "meta_object_id": "2025-276CL",
        "meta_epoch": "2025-12-26T15:19:38.450208",
        "meta_mean_motion": 15.1865925,
        "meta_eccentricity": 0.0002222,
        "meta_inclination": 97.4399,
        "meta_ra_of_asc_node": 72.189,
        "meta_arg_of_pericenter": 206.5853,
        "meta_mean_anomaly": 153.5268,
        "meta_ephemeris_type": 0,
        "meta_classification_type": "U",
        "meta_norad_cat_id": 66748,
        "meta_element_set_no": 999,
        "meta_rev_at_epoch": 423,
        "meta_bstar": 0.0010007,
        "meta_mean_motion_dot": 0.00020712,
        "meta_mean_motion_ddot": 0,
        "tle_line1": "1 66748U 25276CL  25360.63863947  .00020712  00000+0  10007-2 0  9996",
        "tle_line2": "2 66748  97.4399  72.1890 0002222 206.5853 153.5268 15.18659250  4239"
      },
      "geometry": {
        "type": "Point",
        "coordinates": [
          -108.27366740427948,
          -5.761399958627021
        ]
      }
    },
    {
      "type": "Feature",
      "properties": {
        "norad_id": 66749,
        "name": "TRANSPORTER-15CM",
        "group": "last-30-days",
        "lat": 28.590948993462654,
        "lon": -103.45201274659455,
        "alt_km": 509.4782237351783,
        "timestamp": "2025-12-26T22:28:04.497624+00:00",
        "meta_object_name": "TRANSPORTER-15CM",
        "meta_object_id": "2025-276CM",
        "meta_epoch": "2025-12-26T17:03:29.888640",
        "meta_mean_motion": 15.17926165,
        "meta_eccentricity": 0.0002213,
        "meta_inclination": 97.4393,
        "meta_ra_of_asc_node": 72.2427,
        "meta_arg_of_pericenter": 175.4957,
        "meta_mean_anomaly": 184.6297,
        "meta_ephemeris_type": 0,
        "meta_classification_type": "U",
        "meta_norad_cat_id": 66749,
        "meta_element_set_no": 999,
        "meta_rev_at_epoch": 424,
        "meta_bstar": 0.000358,
        "meta_mean_motion_dot": 7.199e-05,
        "meta_mean_motion_ddot": 0,
        "tle_line1": "1 66749U 25276CM  25360.71076260  .00007199  00000+0  35800-3 0  9993",
        "tle_line2": "2 66749  97.4393  72.2427 0002213 175.4957 184.6297 15.17926165  4249"
      },
      "geometry": {
        "type": "Point",
        "coordinates": [
          -103.45201274659455,
          28.590948993462654
        ]
      }
    },
    {
      "type": "Feature",
      "properties": {
        "norad_id": 66750,
        "name": "TRANSPORTER-15CN",
        "group": "last-30-days",
        "lat": 9.576885100994996,
        "lon": -106.24998374284124,
        "alt_km": 512.2153828779901,
        "timestamp": "2025-12-26T22:28:04.497635+00:00",
        "meta_object_name": "TRANSPORTER-15CN",
        "meta_object_id": "2025-276CN",
        "meta_epoch": "2025-12-26T18:33:24.309792",
        "meta_mean_motion": 15.18096634,
        "meta_eccentricity": 0.0002091,
        "meta_inclination": 97.4421,
        "meta_ra_of_asc_node": 72.326,
        "meta_arg_of_pericenter": 130.3921,
        "meta_mean_anomaly": 229.7496,
        "meta_ephemeris_type": 0,
        "meta_classification_type": "U",
        "meta_norad_cat_id": 66750,
        "meta_element_set_no": 999,
        "meta_rev_at_epoch": 425,
        "meta_bstar": 0.001662,
        "meta_mean_motion_dot": 0.00033951,
        "meta_mean_motion_ddot": 0,
        "tle_line1": "1 66750U 25276CN  25360.77319803  .00033951  00000+0  16620-2 0  9997",
        "tle_line2": "2 66750  97.4421  72.3260 0002091 130.3921 229.7496 15.18096634  4257"
      },
      "geometry": {
        "type": "Point",
        "coordinates": [
          -106.24998374284124,
          9.576885100994996
        ]
      }
    },
    {
      "type": "Feature",
      "properties": {
        "norad_id": 66751,
        "name": "ICEYE-X58",
        "group": "last-30-days",
        "lat": 31.621478223123884,
        "lon": -102.91299406009303,
        "alt_km": 509.27236145908137,
        "timestamp": "2025-12-26T22:28:04.497645+00:00",
        "meta_object_name": "ICEYE-X58",
        "meta_object_id": "2025-276CP",
        "meta_epoch": "2025-12-26T17:04:16.885056",
        "meta_mean_motion": 15.17836147,
        "meta_eccentricity": 0.0002697,
        "meta_inclination": 97.4405,
        "meta_ra_of_asc_node": 72.2506,
        "meta_arg_of_pericenter": 190.4113,
        "meta_mean_anomaly": 169.7065,
        "meta_ephemeris_type": 0,
        "meta_classification_type": "U",
        "meta_norad_cat_id": 66751,
        "meta_element_set_no": 999,
        "meta_rev_at_epoch": 424,
        "meta_bstar": 0.00026344,
        "meta_mean_motion_dot": 5.265e-05,
        "meta_mean_motion_ddot": 0,
        "tle_line1": "1 66751U 25276CP  25360.71130654  .00005265  00000+0  26344-3 0  9999",
        "tle_line2": "2 66751  97.4405  72.2506 0002697 190.4113 169.7065 15.17836147  4248"
      },
      "geometry": {
        "type": "Point",
        "coordinates": [
          -102.91299406009303,
          31.621478223123884
        ]
      }
    },
    {
      "type": "Feature",
      "properties": {
        "norad_id": 66752,
        "name": "ICEYE-X59",
        "group": "last-30-days",
        "lat": 50.86029183390198,
        "lon": -98.29708462816473,
        "alt_km": 508.25164261989994,
        "timestamp": "2025-12-26T22:28:04.497659+00:00",
        "meta_object_name": "ICEYE-X59",
        "meta_object_id": "2025-276CQ",
        "meta_epoch": "2025-12-26T17:09:22.919904",
        "meta_mean_motion": 15.17637775,
        "meta_eccentricity": 0.0002118,
        "meta_inclination": 97.4399,
        "meta_ra_of_asc_node": 72.2455,
        "meta_arg_of_pericenter": 215.7871,
        "meta_mean_anomaly": 144.3221,
        "meta_ephemeris_type": 0,
        "meta_classification_type": "U",
        "meta_norad_cat_id": 66752,
        "meta_element_set_no": 999,
        "meta_rev_at_epoch": 424,
        "meta_bstar": 0.00026184,
        "meta_mean_motion_dot": 5.202e-05,
        "meta_mean_motion_ddot": 0,
        "tle_line1": "1 66752U 25276CQ  25360.71484861  .00005202  00000+0  26184-3 0  9995",
        "tle_line2": "2 66752  97.4399  72.2455 0002118 215.7871 144.3221 15.17637775  4243"
      },
      "geometry": {
        "type": "Point",
        "coordinates": [
          -98.29708462816473,
          50.86029183390198
        ]
      }
    }
  ]
}